NORAD_CAT_ID,OBJECT_NAME,OBJECT_TYPE,EPOCH,MEAN_MOTION,ECCENTRICITY,INCLINATION,RA_OF_ASC_NODE,ARG_OF_PERICENTER,MEAN_ANOMALY,BSTAR,MEAN_MOTION_DOT,MEAN_MOTION_DDOT,TLE_LINE0,TLE_LINE1,TLE_LINE2,SEMIMAJOR_AXIS,PERIOD,APOGEE,PERIGEE,DECAYED
52612.0,STARLINK-4002,PAYLOAD,2024-07-28 18:24:16,15.08835325,0.0001431,53.2171,42.9002,92.9319,267.1837,7.3316e-05,8.79e-06,0.0,0 STARLINK-4002,1 52612U 22052Q   24210.76685758  .00000879  00000-0  73316-4 0  9996,2 52612  53.2171  42.9002 0001431  92.9319 267.1837 15.08835325122320,6917.895,95.438,540.75,538.77,0.0
52612.0,STARLINK-4002,PAYLOAD,2024-07-28 21:35:02,15.08838566,0.0001411,53.2177,42.305,101.5356,258.5794,0.00013276,1.825e-05,0.0,0 STARLINK-4002,1 52612U 22052Q   24210.89933379  .00001825  00000-0  13276-3 0  9995,2 52612  53.2177  42.3050 0001411 101.5356 258.5794 15.08838566121975,6917.885,95.438,540.726,538.774,0.0
52612.0,STARLINK-4002,PAYLOAD,2024-07-29 19:50:26,15.08838071,0.0001256,53.218,38.1429,99.6227,260.4907,0.00083917,0.00013092,0.0,0 STARLINK-4002,1 52612U 22052Q   24211.82670086  .00013092  00000-0  83917-3 0  9990,2 52612  53.2180  38.1429 0001256  99.6227 260.4907 15.08838071122489,6917.886,95.438,540.62,538.882,0.0
52612.0,STARLINK-4002,PAYLOAD,2024-07-29 21:25:49,15.08849055,0.0001325,53.2173,37.8453,91.4069,268.7075,0.00029767,4.454e-05,0.0,0 STARLINK-4002,1 52612U 22052Q   24211.89293448  .00004454  00000-0  29767-3 0  9995,2 52612  53.2173  37.8453 0001325  91.4069 268.7075 15.08849055122127,6917.853,95.437,540.634,538.801,0.0
52612.0,STARLINK-4002,PAYLOAD,2024-07-29 23:01:12,15.08852537,0.0001328,53.2169,37.5469,79.3843,280.7298,0.00040828,6.218e-05,0.0,0 STARLINK-4002,1 52612U 22052Q   24211.95917380  .00006218  00000-0  40828-3 0  9991,2 52612  53.2169  37.5469 0001328  79.3843 280.7298 15.08852537122506,6917.842,95.437,540.626,538.788,0.0
52612.0,STARLINK-4002,PAYLOAD,2024-07-30 11:44:17,15.08859495,0.0002582,53.2175,35.1695,85.3114,274.8173,0.00054766,8.443e-05,0.0,0 STARLINK-4002,1 52612U 22052Q   24212.48909382  .00008443  00000-0  54766-3 0  9991,2 52612  53.2175  35.1695 0002582  85.3114 274.8173 15.08859495122213,6917.821,95.436,541.472,537.9,0.0
52612.0,STARLINK-4002,PAYLOAD,2024-07-31 05:13:32,15.08847237,0.00023,53.2157,31.8953,80.7091,279.4161,0.00033832,5.101e-05,0.0,0 STARLINK-4002,1 52612U 22052Q   24213.21773565  .00005101  00000-0  33832-3 0  9994,2 52612  53.2157  31.8953 0002300  80.7091 279.4161 15.08847237122695,6917.858,95.437,541.314,538.132,0.0
52612.0,STARLINK-4002,PAYLOAD,2024-07-31 21:07:23,15.08841837,0.0001282,53.2165,28.9237,77.3699,282.7437,0.00051728,7.955e-05,0.0,0 STARLINK-4002,1 52612U 22052Q   24213.88013588  .00007955  00000-0  51728-3 0  9992,2 52612  53.2165  28.9237 0001282  77.3699 282.7437 15.08841837122794,6917.875,95.437,540.627,538.853,0.0
52612.0,STARLINK-4002,PAYLOAD,2024-08-01 20:58:10,15.08860658,0.0001248,53.2173,24.4608,75.8391,284.274,0.00098223,0.00015388,0.0,0 STARLINK-4002,1 52612U 22052Q   24214.87373393  .00015388  00000-0  98223-3 0  9995,2 52612  53.2173  24.4608 0001248  75.8391 284.2740 15.08860658122572,6917.817,95.436,540.546,538.819,0.0
52612.0,STARLINK-4002,PAYLOAD,2024-08-02 04:55:05,15.08868697,0.0001285,53.2176,22.9744,74.3611,285.7523,0.00089974,0.00014072,0.0,0 STARLINK-4002,1 52612U 22052Q   24215.20492843  .00014072  00000-0  89974-3 0  9997,2 52612  53.2176  22.9744 0001285  74.3611 285.7523 15.08868697122991,6917.793,95.436,540.547,538.769,0.0
52612.0,STARLINK-4002,PAYLOAD,2024-08-02 11:16:39,15.08832144,0.0001681,53.2174,21.7839,95.7865,264.3319,-0.00044248,-7.322e-05,0.0,0 STARLINK-4002,1 52612U 22052Q   24215.46989608 -.00007322  00000-0 -44248-3 0  9992,2 52612  53.2174  21.7839 0001681  95.7865 264.3319 15.08832144123039,6917.904,95.438,540.932,538.607,0.0
52612.0,STARLINK-4002,PAYLOAD,2024-08-02 14:27:25,15.08833715,0.0001602,53.217,21.1898,102.9952,257.1219,-0.00026762,-4.544e-05,0.0,0 STARLINK-4002,1 52612U 22052Q   24215.60237614 -.00004544  00000-0 -26762-3 0  9995,2 52612  53.2170  21.1898 0001602 102.9952 257.1219 15.08833715122689,6917.9,95.438,540.873,538.656,0.0
52612.0,STARLINK-4002,PAYLOAD,2024-08-02 17:38:11,15.08831886,0.0001505,53.2176,20.5966,92.2531,267.8634,-0.00014165,-2.541e-05,0.0,0 STARLINK-4002,1 52612U 22052Q   24215.73485827 -.00002541  00000-0 -14165-3 0  9999,2 52612  53.2176  20.5966 0001505  92.2531 267.8634 15.08831886122709,6917.905,95.438,540.811,538.729,0.0
52612.0,STARLINK-4002,PAYLOAD,2024-08-03 14:18:12,15.0884813,0.0001477,53.2178,16.7318,93.9591,266.157,0.0011366,0.00017851,0.0,0 STARLINK-4002,1 52612U 22052Q   24216.59598362  .00017851  00000-0  11366-2 0  9990,2 52612  53.2178  16.7318 0001477  93.9591 266.1570 15.08848130122836,6917.856,95.437,540.742,538.699,0.0
52612.0,STARLINK-4002,PAYLOAD,2024-08-03 20:39:45,15.08861841,0.0001415,53.2181,15.5416,94.9836,265.1318,0.0013267,0.00020902,0.0,0 STARLINK-4002,1 52612U 22052Q   24216.86094047  .00020902  00000-0  13267-2 0  9994,2 52612  53.2181  15.5416 0001415  94.9836 265.1318 15.08861841123240,6917.814,95.436,540.658,538.7,0.0
52612.0,STARLINK-4002,PAYLOAD,2024-08-04 10:58:13,15.08862748,0.0001327,53.217,12.8617,90.1352,269.9792,0.00071743,0.00011155,0.0,0 STARLINK-4002,1 52612U 22052Q   24217.45709904  .00011155  00000-0  71743-3 0  9999,2 52612  53.2170  12.8617 0001327  90.1352 269.9792 15.08862748123339,6917.811,95.436,540.594,538.758,0.0
52612.0,STARLINK-4002,PAYLOAD,2024-08-04 14:08:59,15.08848107,0.0001274,53.2179,12.2711,84.2595,275.8543,0.00039523,6.009e-05,0.0,0 STARLINK-4002,1 52612U 22052Q   24217.58957990  .00006009  00000-0  39523-3 0  9995,2 52612  53.2179  12.2711 0001274  84.2595 275.8543 15.08848107122984,6917.856,95.437,540.602,538.839,0.0
52612.0,STARLINK-4002,PAYLOAD,2024-08-04 17:19:45,15.08854633,0.0001289,53.2181,11.6772,75.4845,284.629,0.00070862,0.00011012,0.0,0 STARLINK-4002,1 52612U 22052Q   24217.72205934  .00011012  00000-0  70862-3 0  9996,2 52612  53.2181  11.6772 0001289  75.4845 284.6290 15.08854633123375,6917.836,95.437,540.592,538.809,0.0
52612.0,STARLINK-4002,PAYLOAD,2024-08-05 02:52:03,15.08897424,0.0001337,53.2185,9.8933,73.6353,286.4786,0.0031663,0.00050545,0.0,0 STARLINK-4002,1 52612U 22052Q   24218.11949068  .00050545  00000-0  31663-2 0  9992,2 52612  53.2185   9.8933 0001337  73.6353 286.4786 15.08897424123437,6917.705,95.434,540.495,538.645,0.0
52612.0,STARLINK-4002,PAYLOAD,2024-08-05 17:10:33,15.08826891,0.0001454,53.2192,7.2192,99.4208,260.6948,0.00089472,0.00013975,0.0,0 STARLINK-4002,1 52612U 22052Q   24218.71566130  .00013975  00000-0  89472-3 0  9991,2 52612  53.2192   7.2192 0001454  99.4208 260.6948 15.08826891123523,6917.92,95.438,540.791,538.78,0.0
52612.0,STARLINK-4002,PAYLOAD,2024-08-05 21:56:42,15.08850828,0.0001396,53.2188,6.3242,86.6366,273.4786,0.00091889,0.00014371,0.0,0 STARLINK-4002,1 52612U 22052Q   24218.91437817  .00014371  00000-0  91889-3 0  9998,2 52612  53.2188   6.3242 0001396  86.6366 273.4786 15.08850828123183,6917.847,95.437,540.678,538.747,0.0
52612.0,STARLINK-4002,PAYLOAD,2024-08-06 13:50:34,15.08831661,0.0001389,53.2189,3.3525,99.0054,261.1095,0.00081418,0.0001269,0.0,0 STARLINK-4002,1 52612U 22052Q   24219.57678757  .00012690  00000-0  81418-3 0  9990,2 52612  53.2189   3.3525 0001389  99.0054 261.1095 15.08831661123281,6917.906,95.438,540.732,538.81,0.0
52612.0,STARLINK-4002,PAYLOAD,2024-08-06 18:36:43,15.08846542,0.0001496,53.2183,2.4597,106.7553,253.3604,0.0022311,0.00035405,0.0,0 STARLINK-4002,1 52612U 22052Q   24219.77550784  .00035405  00000-0  22311-2 0  9996,2 52612  53.2183   2.4597 0001496 106.7553 253.3604 15.08846542123680,6917.86,95.437,540.76,538.69,0.0
52612.0,STARLINK-4002,PAYLOAD,2024-08-07 16:52:07,15.08860926,0.0001249,53.2179,358.2969,102.5449,257.5683,0.00074612,0.00011613,0.0,0 STARLINK-4002,1 52612U 22052Q   24220.70285944  .00011613  00000-0  74612-3 0  9991,2 52612  53.2179 358.2969 0001249 102.5449 257.5683 15.08860926123825,6917.816,95.436,540.545,538.817,0.0
52612.0,STARLINK-4002,PAYLOAD,2024-08-08 13:32:08,15.0882877,0.0001515,53.2171,354.4279,85.181,274.9355,0.001482,0.00023369,0.0,0 STARLINK-4002,1 52612U 22052Q   24221.56398396  .00023369  00000-0  14820-2 0  9997,2 52612  53.2171 354.4279 0001515  85.1810 274.9355 15.08828770123586,6917.915,95.438,540.828,538.732,0.0
52612.0,STARLINK-4002,PAYLOAD,2024-08-08 16:42:54,15.08848699,0.0001579,53.2179,353.8358,77.4516,282.6652,0.00029138,4.353e-05,0.0,0 STARLINK-4002,1 52612U 22052Q   24221.69646179  .00004353  00000-0  29138-3 0  9997,2 52612  53.2179 353.8358 0001579  77.4516 282.6652 15.08848699123973,6917.854,95.437,540.811,538.626,0.0
52612.0,STARLINK-4002,PAYLOAD,2024-08-09 14:58:18,15.08834172,0.0001647,53.2175,349.6689,109.6279,250.4891,0.00013092,1.796e-05,0.0,0 STARLINK-4002,1 52612U 22052Q   24222.62382280  .00001796  00000-0  13092-3 0  9991,2 52612  53.2175 349.6689 0001647 109.6279 250.4891 15.08834172123743,6917.898,95.438,540.903,538.624,0.0
52612.0,STARLINK-4002,PAYLOAD,2024-08-09 18:09:04,15.08849393,0.0001512,53.218,349.0761,99.7919,260.3244,0.00064799,0.00010042,0.0,0 STARLINK-4002,1 52612U 22052Q   24222.75630103  .00010042  00000-0  64799-3 0  9999,2 52612  53.2180 349.0761 0001512  99.7919 260.3244 15.08849393124132,6917.852,95.437,540.763,538.671,0.0
52612.0,STARLINK-4002,PAYLOAD,2024-08-10 13:13:42,15.08841528,0.0001621,53.2177,345.504,96.064,264.0537,0.00034143,5.15e-05,0.0,0 STARLINK-4002,1 52612U 22052Q   24223.55118358  .00005150  00000-0  34143-3 0  9995,2 52612  53.2177 345.5040 0001621  96.0640 264.0537 15.08841528124252,6917.876,95.437,540.862,538.619,0.0
52612.0,STARLINK-4002,PAYLOAD,2024-08-10 14:49:05,15.0884379,0.000173,53.2186,345.2065,100.3023,259.8164,0.00028303,4.22e-05,0.0,0 STARLINK-4002,1 52612U 22052Q   24223.61742342  .00004220  00000-0  28303-3 0  9996,2 52612  53.2186 345.2065 0001730 100.3023 259.8164 15.08843790123891,6917.869,95.437,540.931,538.537,0.0
